MTI                     
1 26102U 00014A   16033.52838566  .00008749  00000-0  21819-3 0  9994
2 26102  97.5148 179.6546 0008872 282.1795 140.6467 15.40419117877265
CFESAT                  
1 30777U 07006F   16033.15976815  .00006547  00000-0  24426-3 0  9995
2 30777  35.4258  13.9630 0003556 187.3941 172.6730 15.26798535491255
SPIRALE A               
1 33751U 09008C   16032.46503891  .00000340  00000-0  29590-3 0  9999
2 33751   2.0787 297.2325 5577777 169.4042 210.7980  4.58522908 87810
SPIRALE B               
1 33752U 09008D   16032.72379562  .00009512  00000-0  14035-2 0  9992
2 33752   1.9064 255.2928 7012677 247.4003  27.8024  2.63887088 61432
SAPPHIRE                
1 39088U 13009C   16032.74458168  .00000025  00000-0  24773-4 0  9990
2 39088  98.5905 233.9940 0011065 346.0287  14.0590 14.34085663153490
